OBJECT_NAME,OBJECT_ID,EPOCH,MEAN_MOTION,ECCENTRICITY,INCLINATION,RA_OF_ASC_NODE,ARG_OF_PERICENTER,MEAN_ANOMALY,EPHEMERIS_TYPE,CLASSIFICATION_TYPE,NORAD_CAT_ID,ELEMENT_SET_NO,REV_AT_EPOCH,BSTAR,MEAN_MOTION_DOT,MEAN_MOTION_DDOT
SL-8 R/B,1985-006B,2026-07-05T01:17:20.691744,14.37841933,.00192434,74.0454,45.1858,289.6685,222.9292,0,U,15483,999,17089,.76561255E-4,.205E-5,0
SL-12 R/B(2),1985-042D,2026-07-05T00:31:27.255936,14.22009447,.00371114,71.1060,199.8357,301.1501,79.9206,0,U,15772,999,13107,.67356472E-4,.102E-5,0
SL-14 R/B,1985-069B,2026-07-05T05:01:03.063072,14.86530624,.00193492,82.5271,274.4175,158.6856,201.5171,0,U,15945,999,19029,.63386033E-4,.587E-5,0
SL-16 R/B,1985-097B,2026-07-04T22:39:18.683136,14.16614214,.00052761,71.0026,253.6951,72.0446,108.2114,0,U,16182,999,10383,-.77168399E-4,-.202E-5,0
SL-14 R/B,1986-006B,2026-07-04T21:13:19.931808,14.86962723,.00748298,82.5274,149.4595,243.6033,115.7490,0,U,16496,999,16662,.66876582E-4,.655E-5,0
COSMOS 1743,1986-034A,2026-07-04T07:36:15.605856,15.68614241,.00048551,82.5286,310.4985,211.6529,148.4441,0,U,16719,999,19847,.66120816E-3,.75538E-3,0
SL-14 R/B,1986-046B,2026-07-04T15:56:25.130400,14.85685182,.00225833,82.4831,329.6602,197.8411,162.2015,0,U,16792,999,14377,.71914137E-4,.65E-5,0
SL-14 R/B,1986-055B,2026-07-05T00:16:08.959584,14.85735853,.00176113,82.5197,16.3729,306.9075,213.9332,0,U,16882,999,13678,.56744046E-4,.518E-5,0
AJISAI (EGS),1986-061A,2026-07-05T05:27:53.313696,12.44516682,.00111239,50.0098,91.9210,226.4733,306.9096,0,U,16908,999,48263,-.57939738E-4,-.106E-5,0
SL-14 R/B,1987-024B,2026-07-04T17:20:14.557344,14.86226724,.00170208,82.5289,342.7670,230.1095,129.8626,0,U,17567,999,10551,.68307836E-4,.625E-5,0
COSMOS 1833,1987-027A,2026-07-04T22:43:59.938464,14.13062516,.00235464,70.9210,79.5399,25.4782,334.7494,0,U,17589,999,2688,.14835121E-3,.23E-5,0
SL-16 R/B,1987-027B,2026-07-05T00:04:46.737408,14.17175095,.00070745,71.0032,29.2848,293.0084,67.0294,0,U,17590,999,3196,-.33860249E-4,-.116E-5,0
SL-14 R/B,1987-038B,2026-07-04T23:30:45.643680,14.85456964,.00203744,82.5003,186.3122,133.7117,226.5791,0,U,17912,999,9664,.55006354E-4,.5E-5,0
COSMOS 1844,1987-041A,2026-07-04T15:27:35.118144,14.14574555,.00319689,70.8982,147.4841,210.1841,149.7440,0,U,17973,999,2012,.25749553E-3,.449E-5,0
SL-14 R/B,1987-055B,2026-07-05T01:41:41.070336,14.85723143,.00202226,82.4980,238.3710,349.7705,10.3096,0,U,18153,999,8736,.513276E-4,.471E-5,0
COSMOS 1867,1987-060A,2026-07-04T22:44:45.812544,14.31517790,.00169182,65.0119,338.3181,282.1171,77.8017,0,U,18187,999,3672,.25255577E-4,-.33E-6,0
SL-14 R/B,1988-001B,2026-07-04T11:13:30.744480,14.85622310,.00171973,82.5131,85.5168,207.8153,152.2145,0,U,18749,999,5936,.61813816E-4,.56E-5,0
COSMOS 1933,1988-020A,2026-07-04T19:50:03.110496,15.18838658,.0005292,82.5134,134.9667,132.8110,227.3570,0,U,18958,999,6800,.28673636E-3,.6002E-4,0
SL-3 R/B,1988-032B,2026-07-05T03:19:43.398336,15.20978817,.00254779,97.5268,169.1630,180.0414,180.0824,0,U,19046,999,6995,.26969012E-3,.5957E-4,0
SL-16 R/B,1988-039B,2026-07-05T00:26:15.249984,14.19631697,.00211884,71.0128,180.4537,165.6589,194.5142,0,U,19120,999,97503,.93312704E-4,.15E-5,0
COSMOS 1953,1988-050A,2026-07-05T01:38:35.048544,15.30237098,.00121961,82.5062,39.9983,71.9355,288.3213,0,U,19210,999,5572,.4150878E-3,.12203E-3,0
SL-8 R/B,1988-053B,2026-07-04T10:42:13.529952,14.38974501,.0019364,74.0472,257.2442,46.2608,324.8442,0,U,19257,999,99339,.82690643E-4,.229E-5,0
COSMOS 1975,1988-093A,2026-07-04T22:48:10.676448,15.29570766,.00124623,82.5196,359.8296,114.1716,246.0829,0,U,19573,999,3732,.39879795E-3,.11489E-3,0
SL-14 R/B,1988-093B,2026-07-05T05:55:39.702720,14.85755958,.00209065,82.5320,291.6904,13.4978,7.0857,0,U,19574,999,1847,.59893233E-4,.546E-5,0
SL-16 R/B,1988-102B,2026-07-05T05:29:37.093056,14.16169622,.00148285,70.9999,264.1775,200.5335,159.5194,0,U,19650,999,94353,-.17484173E-4,-.82E-6,0
INTERCOSMOS 24,1989-080A,2026-07-05T01:04:22.207008,12.59686645,.11877346,82.6048,28.0233,20.5008,343.9857,0,U,20261,999,68157,.21680575E-3,.755E-5,0
SL-14 R/B,1989-080C,2026-07-05T03:53:24.965664,12.50577114,.12284054,82.5942,97.7595,276.2544,70.0335,0,U,20262,999,67483,.58664697E-4,.193E-5,0
DELTA 1 R/B,1989-089B,2026-07-05T00:20:29.696640,14.50743731,.00704596,97.0634,14.7196,111.4267,249.4466,0,U,20323,999,91274,.12187538E-3,.46E-5,0
ARIANE 40 R/B,1990-005H,2026-07-05T02:40:42.945888,14.39937581,.00095936,98.2950,243.1697,204.7313,155.3417,0,U,20443,999,90970,.12534907E-3,.352E-5,0
DELTA 2 R/B(1),1990-008B,2026-07-05T04:23:12.779520,15.71968774,.00632869,35.6002,115.0124,282.8531,76.5145,0,U,20453,999,94453,.95177008E-3,.148096E-2,0
