SL-8 R/B                
1 15483U 85006B   26186.05371171  .00000205  00000+0  76561-4 0  9993
2 15483  74.0454  45.1858 0019243 289.6685 222.9292 14.37841933170897
SL-12 R/B(2)            
1 15772U 85042D   26186.02184324  .00000102  00000+0  67356-4 0  9991
2 15772  71.1060 199.8357 0037111 301.1501  79.9206 14.22009447131073
SL-14 R/B               
1 15945U 85069B   26186.20906323  .00000587  00000+0  63386-4 0  9999
2 15945  82.5271 274.4175 0019349 158.6856 201.5171 14.86530624190293
SL-16 R/B               
1 16182U 85097B   26185.94396624 -.00000202  00000+0 -77168-4 0  9990
2 16182  71.0026 253.6951 0005276  72.0446 108.2114 14.16614214103832
SL-14 R/B               
1 16496U 86006B   26185.88425847  .00000655  00000+0  66877-4 0  9997
2 16496  82.5274 149.4595 0074829 243.6033 115.7490 14.86962723166620
COSMOS 1743             
1 16719U 86034A   26185.31684729  .00075538  00000+0  66121-3 0  9993
2 16719  82.5286 310.4985 0004855 211.6529 148.4441 15.68614241198478
SL-14 R/B               
1 16792U 86046B   26185.66417975  .00000650  00000+0  71914-4 0  9992
2 16792  82.4831 329.6602 0022583 197.8411 162.2015 14.85685182143779
SL-14 R/B               
1 16882U 86055B   26186.01121481  .00000518  00000+0  56744-4 0  9993
2 16882  82.5197  16.3729 0017611 306.9075 213.9332 14.85735853136780
AJISAI (EGS)            
1 16908U 86061A   26186.22770039 -.00000106  00000+0 -57940-4 0  9995
2 16908  50.0098  91.9210 0011123 226.4733 306.9096 12.44516682482630
SL-14 R/B               
1 17567U 87024B   26185.72239071  .00000625  00000+0  68308-4 0  9991
2 17567  82.5289 342.7670 0017020 230.1095 129.8626 14.86226724105519
COSMOS 1833             
1 17589U 87027A   26185.94722151  .00000230  00000+0  14835-3 0  9995
2 17589  70.9210  79.5399 0023546  25.4782 334.7494 14.13062516 26888
SL-16 R/B               
1 17590U 87027B   26186.00331872 -.00000116  00000+0 -33860-4 0  9996
2 17590  71.0032  29.2848 0007074 293.0084  67.0294 14.17175095 31961
SL-14 R/B               
1 17912U 87038B   26185.97969495  .00000500  00000+0  55006-4 0  9990
2 17912  82.5003 186.3122 0020374 133.7117 226.5791 14.85456964 96641
COSMOS 1844             
1 17973U 87041A   26185.64415646  .00000449  00000+0  25750-3 0  9993
2 17973  70.8982 147.4841 0031968 210.1841 149.7440 14.14574555 20121
SL-14 R/B               
1 18153U 87055B   26186.07061424  .00000471  00000+0  51328-4 0  9994
2 18153  82.4980 238.3710 0020222 349.7705  10.3096 14.85723143 87369
COSMOS 1867             
1 18187U 87060A   26185.94775246 -.00000033  00000+0  25256-4 0  9992
2 18187  65.0119 338.3181 0016918 282.1171  77.8017 14.31517790 36729
SL-14 R/B               
1 18749U 88001B   26185.46771695  .00000560  00000+0  61814-4 0  9997
2 18749  82.5131  85.5168 0017197 207.8153 152.2145 14.85622310 59360
COSMOS 1933             
1 18958U 88020A   26185.82642489  .00006002  00000+0  28674-3 0  9991
2 18958  82.5134 134.9667 0005292 132.8110 227.3570 15.18838658 68009
SL-3 R/B                
1 19046U 88032B   26186.13869674  .00005957  00000+0  26969-3 0  9998
2 19046  97.5268 169.1630 0025477 180.0414 180.0824 15.20978817 69958
SL-16 R/B               
1 19120U 88039B   26186.01823206  .00000150  00000+0  93313-4 0  9994
2 19120  71.0128 180.4537 0021188 165.6589 194.5142 14.19631697975039
COSMOS 1953             
1 19210U 88050A   26186.06846121  .00012203  00000+0  41509-3 0  9994
2 19210  82.5062  39.9983 0012196  71.9355 288.3213 15.30237098 55722
SL-8 R/B                
1 19257U 88053B   26185.44598993  .00000229  00000+0  82691-4 0  9993
2 19257  74.0472 257.2442 0019364  46.2608 324.8442 14.38974501993397
COSMOS 1975             
1 19573U 88093A   26185.95012357  .00011489  00000+0  39880-3 0  9990
2 19573  82.5196 359.8296 0012462 114.1716 246.0829 15.29570766 37320
SL-14 R/B               
1 19574U 88093B   26186.24698730  .00000546  00000+0  59893-4 0  9998
2 19574  82.5320 291.6904 0020906  13.4978   7.0857 14.85755958 18472
SL-16 R/B               
1 19650U 88102B   26186.22890154 -.00000082  00000+0 -17484-4 0  9993
2 19650  70.9999 264.1775 0014828 200.5335 159.5194 14.16169622943535
INTERCOSMOS 24          
1 20261U 89080A   26186.04470147  .00000755  00000+0  21681-3 0  9993
2 20261  82.6048  28.0233 1187734  20.5008 343.9857 12.59686645681573
SL-14 R/B               
1 20262U 89080C   26186.16209451  .00000193  00000+0  58665-4 0  9994
2 20262  82.5942  97.7595 1228405 276.2544  70.0335 12.50577114674837
DELTA 1 R/B             
1 20323U 89089B   26186.01423260  .00000460  00000+0  12188-3 0  9997
2 20323  97.0634  14.7196 0070459 111.4267 249.4466 14.50743731912749
ARIANE 40 R/B           
1 20443U 90005H   26186.11160817  .00000352  00000+0  12535-3 0  9993
2 20443  98.2950 243.1697 0009593 204.7313 155.3417 14.39937581909707
DELTA 2 R/B(1)          
1 20453U 90008B   26186.18278680  .00148096  00000+0  95177-3 0  9993
2 20453  35.6002 115.0124 0063286 282.8531  76.5145 15.71968774944538
